[{"OBJECT_NAME":"ONEWEB-0643","OBJECT_ID":"2023-029M","EPOCH":"2026-03-07T03:30:37.655424","MEAN_MOTION":13.14502626,"ECCENTRICITY":0.000219,"INCLINATION":87.8984,"RA_OF_ASC_NODE":310.0987,"ARG_OF_PERICENTER":92.0035,"MEAN_ANOMALY":268.1346,"EPHEMERIS_TYPE":0,"CLASSIFICATION_TYPE":"U","NORAD_CAT_ID":55807,"ELEMENT_SET_NO":999,"REV_AT_EPOCH":14598,"BSTAR":0.00013596,"MEAN_MOTION_DOT":6.3e-7,"MEAN_MOTION_DDOT":0},{"OBJECT_NAME":"ONEWEB-0644","OBJECT_ID":"2023-029N","EPOCH":"2026-03-07T02:52:42.048768","MEAN_MOTION":13.19726513,"ECCENTRICITY":0.0001996,"INCLINATION":87.9223,"RA_OF_ASC_NODE":325.3212,"ARG_OF_PERICENTER":88.7122,"MEAN_ANOMALY":271.4239,"EPHEMERIS_TYPE":0,"CLASSIFICATION_TYPE":"U","NORAD_CAT_ID":55808,"ELEMENT_SET_NO":999,"REV_AT_EPOCH":14544,"BSTAR":0.00012674,"MEAN_MOTION_DOT":6.4e-7,"MEAN_MOTION_DDOT":0},{"OBJECT_NAME":"ONEWEB-0645","OBJECT_ID":"2023-029P","EPOCH":"2026-03-07T03:24:31.962240","MEAN_MOTION":13.19725094,"ECCENTRICITY":0.0001615,"INCLINATION":87.9231,"RA_OF_ASC_NODE":325.3086,"ARG_OF_PERICENTER":97.8903,"MEAN_ANOMALY":262.2413,"EPHEMERIS_TYPE":0,"CLASSIFICATION_TYPE":"U","NORAD_CAT_ID":55809,"ELEMENT_SET_NO":999,"REV_AT_EPOCH":14544,"BSTAR":0.00012295,"MEAN_MOTION_DOT":6.2e-7,"MEAN_MOTION_DDOT":0},{"OBJECT_NAME":"ONEWEB-0646","OBJECT_ID":"2023-029Q","EPOCH":"2026-03-07T03:49:32.120256","MEAN_MOTION":13.19727201,"ECCENTRICITY":0.0001897,"INCLINATION":87.9228,"RA_OF_ASC_NODE":325.3052,"ARG_OF_PERICENTER":86.4826,"MEAN_ANOMALY":273.6523,"EPHEMERIS_TYPE":0,"CLASSIFICATION_TYPE":"U","NORAD_CAT_ID":55810,"ELEMENT_SET_NO":999,"REV_AT_EPOCH":14543,"BSTAR":8.9657e-5,"MEAN_MOTION_DOT":4.9e-7,"MEAN_MOTION_DDOT":0},{"OBJECT_NAME":"ONEWEB-0648","OBJECT_ID":"2023-029R","EPOCH":"2026-03-07T02:44:57.386112","MEAN_MOTION":13.14501859,"ECCENTRICITY":0.0001912,"INCLINATION":87.8989,"RA_OF_ASC_NODE":310.0694,"ARG_OF_PERICENTER":113.7513,"MEAN_ANOMALY":246.3818,"EPHEMERIS_TYPE":0,"CLASSIFICATION_TYPE":"U","NORAD_CAT_ID":55811,"ELEMENT_SET_NO":999,"REV_AT_EPOCH":14598,"BSTAR":0.00062286,"MEAN_MOTION_DOT":2.44e-6,"MEAN_MOTION_DDOT":0},{"OBJECT_NAME":"ONEWEB-0649","OBJECT_ID":"2023-029S","EPOCH":"2026-03-07T04:25:55.926048","MEAN_MOTION":13.19725863,"ECCENTRICITY":0.0001662,"INCLINATION":87.9233,"RA_OF_ASC_NODE":325.2971,"ARG_OF_PERICENTER":92.1983,"MEAN_ANOMALY":267.934,"EPHEMERIS_TYPE":0,"CLASSIFICATION_TYPE":"U","NORAD_CAT_ID":55812,"ELEMENT_SET_NO":999,"REV_AT_EPOCH":14547,"BSTAR":0.00018354,"MEAN_MOTION_DOT":8.6e-7,"MEAN_MOTION_DDOT":0},{"OBJECT_NAME":"ONEWEB-0650","OBJECT_ID":"2023-029T","EPOCH":"2026-03-07T04:19:06.455712","MEAN_MOTION":13.19728,"ECCENTRICITY":0.0001933,"INCLINATION":87.923,"RA_OF_ASC_NODE":325.301,"ARG_OF_PERICENTER":92.8043,"MEAN_ANOMALY":267.3311,"EPHEMERIS_TYPE":0,"CLASSIFICATION_TYPE":"U","NORAD_CAT_ID":55813,"ELEMENT_SET_NO":999,"REV_AT_EPOCH":14544,"BSTAR":0.00021965,"MEAN_MOTION_DOT":1.01e-6,"MEAN_MOTION_DDOT":0},{"OBJECT_NAME":"ONEWEB-0652","OBJECT_ID":"2023-029U","EPOCH":"2026-03-07T04:07:09.622560","MEAN_MOTION":13.14502473,"ECCENTRICITY":0.0001592,"INCLINATION":87.8986,"RA_OF_ASC_NODE":310.0735,"ARG_OF_PERICENTER":75.8438,"MEAN_ANOMALY":284.2868,"EPHEMERIS_TYPE":0,"CLASSIFICATION_TYPE":"U","NORAD_CAT_ID":55814,"ELEMENT_SET_NO":999,"REV_AT_EPOCH":14596,"BSTAR":-0.00031073,"MEAN_MOTION_DOT":-1.02e-6,"MEAN_MOTION_DDOT":0},{"OBJECT_NAME":"ONEWEB-0653","OBJECT_ID":"2023-029V","EPOCH":"2026-03-07T03:44:19.382496","MEAN_MOTION":13.14502581,"ECCENTRICITY":0.000143,"INCLINATION":87.8991,"RA_OF_ASC_NODE":310.0676,"ARG_OF_PERICENTER":78.1679,"MEAN_ANOMALY":281.9611,"EPHEMERIS_TYPE":0,"CLASSIFICATION_TYPE":"U","NORAD_CAT_ID":55815,"ELEMENT_SET_NO":999,"REV_AT_EPOCH":14599,"BSTAR":-0.00045932,"MEAN_MOTION_DOT":-1.58e-6,"MEAN_MOTION_DDOT":0},{"OBJECT_NAME":"ONEWEB-0654","OBJECT_ID":"2023-029W","EPOCH":"2026-03-07T03:37:28.280928","MEAN_MOTION":13.14502915,"ECCENTRICITY":0.0001526,"INCLINATION":87.8984,"RA_OF_ASC_NODE":310.0678,"ARG_OF_PERICENTER":67.7662,"MEAN_ANOMALY":292.3629,"EPHEMERIS_TYPE":0,"CLASSIFICATION_TYPE":"U","NORAD_CAT_ID":55816,"ELEMENT_SET_NO":999,"REV_AT_EPOCH":14601,"BSTAR":-0.0001141,"MEAN_MOTION_DOT":-3.0e-7,"MEAN_MOTION_DDOT":0},{"OBJECT_NAME":"ONEWEB-0656","OBJECT_ID":"2023-029X","EPOCH":"2026-03-07T03:49:56.866080","MEAN_MOTION":13.20773021,"ECCENTRICITY":0.0001451,"INCLINATION":87.9175,"RA_OF_ASC_NODE":294.8002,"ARG_OF_PERICENTER":68.693,"MEAN_ANOMALY":291.4358,"EPHEMERIS_TYPE":0,"CLASSIFICATION_TYPE":"U","NORAD_CAT_ID":55817,"ELEMENT_SET_NO":999,"REV_AT_EPOCH":14768,"BSTAR":0.00010227,"MEAN_MOTION_DOT":5.5e-7,"MEAN_MOTION_DDOT":0},{"OBJECT_NAME":"ONEWEB-0657","OBJECT_ID":"2023-029Y","EPOCH":"2026-03-07T04:12:18.411840","MEAN_MOTION":13.19726613,"ECCENTRICITY":0.0002205,"INCLINATION":87.9234,"RA_OF_ASC_NODE":325.301,"ARG_OF_PERICENTER":65.7885,"MEAN_ANOMALY":294.3478,"EPHEMERIS_TYPE":0,"CLASSIFICATION_TYPE":"U","NORAD_CAT_ID":55818,"ELEMENT_SET_NO":999,"REV_AT_EPOCH":14545,"BSTAR":0.00015822,"MEAN_MOTION_DOT":7.6e-7,"MEAN_MOTION_DDOT":0},{"OBJECT_NAME":"ONEWEB-0658","OBJECT_ID":"2023-029Z","EPOCH":"2026-03-07T04:05:28.815360","MEAN_MOTION":13.19726603,"ECCENTRICITY":0.0001973,"INCLINATION":87.9243,"RA_OF_ASC_NODE":325.2684,"ARG_OF_PERICENTER":90.5885,"MEAN_ANOMALY":269.5474,"EPHEMERIS_TYPE":0,"CLASSIFICATION_TYPE":"U","NORAD_CAT_ID":55819,"ELEMENT_SET_NO":999,"REV_AT_EPOCH":14546,"BSTAR":0.00016591,"MEAN_MOTION_DOT":7.9e-7,"MEAN_MOTION_DDOT":0},{"OBJECT_NAME":"ONEWEB-0660","OBJECT_ID":"2023-029AA","EPOCH":"2026-03-07T01:15:54.170784","MEAN_MOTION":13.14502846,"ECCENTRICITY":0.000145,"INCLINATION":87.8994,"RA_OF_ASC_NODE":310.0742,"ARG_OF_PERICENTER":98.1834,"MEAN_ANOMALY":261.946,"EPHEMERIS_TYPE":0,"CLASSIFICATION_TYPE":"U","NORAD_CAT_ID":55820,"ELEMENT_SET_NO":999,"REV_AT_EPOCH":14598,"BSTAR":0.00079672,"MEAN_MOTION_DOT":3.08e-6,"MEAN_MOTION_DDOT":0},{"OBJECT_NAME":"ONEWEB-0661","OBJECT_ID":"2023-029AB","EPOCH":"2026-03-07T03:55:44.287392","MEAN_MOTION":13.14502798,"ECCENTRICITY":0.0001341,"INCLINATION":87.8983,"RA_OF_ASC_NODE":310.1082,"ARG_OF_PERICENTER":90.2268,"MEAN_ANOMALY":269.9016,"EPHEMERIS_TYPE":0,"CLASSIFICATION_TYPE":"U","NORAD_CAT_ID":55821,"ELEMENT_SET_NO":999,"REV_AT_EPOCH":14598,"BSTAR":-0.00043006,"MEAN_MOTION_DOT":-1.47e-6,"MEAN_MOTION_DDOT":0},{"OBJECT_NAME":"ONEWEB-0662","OBJECT_ID":"2023-029AC","EPOCH":"2026-03-07T02:56:22.560576","MEAN_MOTION":13.14502785,"ECCENTRICITY":0.0001455,"INCLINATION":87.898,"RA_OF_ASC_NODE":310.1241,"ARG_OF_PERICENTER":93.5933,"MEAN_ANOMALY":266.5363,"EPHEMERIS_TYPE":0,"CLASSIFICATION_TYPE":"U","NORAD_CAT_ID":55822,"ELEMENT_SET_NO":999,"REV_AT_EPOCH":14602,"BSTAR":0.00063176,"MEAN_MOTION_DOT":2.47e-6,"MEAN_MOTION_DDOT":0},{"OBJECT_NAME":"ONEWEB-0663","OBJECT_ID":"2023-029AD","EPOCH":"2026-03-07T01:11:14.106048","MEAN_MOTION":13.20862883,"ECCENTRICITY":0.0001638,"INCLINATION":87.9182,"RA_OF_ASC_NODE":294.8946,"ARG_OF_PERICENTER":100.9418,"MEAN_ANOMALY":259.19,"EPHEMERIS_TYPE":0,"CLASSIFICATION_TYPE":"U","NORAD_CAT_ID":55823,"ELEMENT_SET_NO":999,"REV_AT_EPOCH":14766,"BSTAR":0.0002025,"MEAN_MOTION_DOT":9.5e-7,"MEAN_MOTION_DDOT":0},{"OBJECT_NAME":"ONEWEB-0664","OBJECT_ID":"2023-029AE","EPOCH":"2026-03-07T01:42:39.799008","MEAN_MOTION":13.20775534,"ECCENTRICITY":0.0001108,"INCLINATION":87.9167,"RA_OF_ASC_NODE":294.8827,"ARG_OF_PERICENTER":89.2146,"MEAN_ANOMALY":270.9115,"EPHEMERIS_TYPE":0,"CLASSIFICATION_TYPE":"U","NORAD_CAT_ID":55824,"ELEMENT_SET_NO":999,"REV_AT_EPOCH":14766,"BSTAR":0.00013309,"MEAN_MOTION_DOT":6.7e-7,"MEAN_MOTION_DDOT":0},{"OBJECT_NAME":"ONEWEB-0665","OBJECT_ID":"2023-029AF","EPOCH":"2026-03-07T03:51:10.654272","MEAN_MOTION":13.14503038,"ECCENTRICITY":0.0001541,"INCLINATION":87.8986,"RA_OF_ASC_NODE":310.0891,"ARG_OF_PERICENTER":93.0533,"MEAN_ANOMALY":267.0773,"EPHEMERIS_TYPE":0,"CLASSIFICATION_TYPE":"U","NORAD_CAT_ID":55825,"ELEMENT_SET_NO":999,"REV_AT_EPOCH":14600,"BSTAR":-0.00054086,"MEAN_MOTION_DOT":-1.88e-6,"MEAN_MOTION_DDOT":0},{"OBJECT_NAME":"ONEWEB-0666","OBJECT_ID":"2023-029AG","EPOCH":"2026-03-07T01:33:35.280288","MEAN_MOTION":13.20773252,"ECCENTRICITY":0.0002038,"INCLINATION":87.9164,"RA_OF_ASC_NODE":294.874,"ARG_OF_PERICENTER":67.0327,"MEAN_ANOMALY":293.1021,"EPHEMERIS_TYPE":0,"CLASSIFICATION_TYPE":"U","NORAD_CAT_ID":55826,"ELEMENT_SET_NO":999,"REV_AT_EPOCH":14767,"BSTAR":0.0002984,"MEAN_MOTION_DOT":1.34e-6,"MEAN_MOTION_DDOT":0},{"OBJECT_NAME":"ONEWEB-0667","OBJECT_ID":"2023-029AH","EPOCH":"2026-03-07T03:13:35.609952","MEAN_MOTION":13.20771927,"ECCENTRICITY":0.0001443,"INCLINATION":87.9181,"RA_OF_ASC_NODE":294.8005,"ARG_OF_PERICENTER":90.5237,"MEAN_ANOMALY":269.6061,"EPHEMERIS_TYPE":0,"CLASSIFICATION_TYPE":"U","NORAD_CAT_ID":55827,"ELEMENT_SET_NO":999,"REV_AT_EPOCH":14767,"BSTAR":0.00018077,"MEAN_MOTION_DOT":8.6e-7,"MEAN_MOTION_DDOT":0},{"OBJECT_NAME":"ONEWEB-0669","OBJECT_ID":"2023-029AJ","EPOCH":"2026-03-07T03:06:46.410048","MEAN_MOTION":13.2077222,"ECCENTRICITY":0.0001258,"INCLINATION":87.9164,"RA_OF_ASC_NODE":294.8267,"ARG_OF_PERICENTER":62.7866,"MEAN_ANOMALY":297.3395,"EPHEMERIS_TYPE":0,"CLASSIFICATION_TYPE":"U","NORAD_CAT_ID":55828,"ELEMENT_SET_NO":999,"REV_AT_EPOCH":14767,"BSTAR":0.00041919,"MEAN_MOTION_DOT":1.83e-6,"MEAN_MOTION_DDOT":0},{"OBJECT_NAME":"ONEWEB-0670","OBJECT_ID":"2023-029AK","EPOCH":"2026-03-07T03:19:12.460224","MEAN_MOTION":13.14502788,"ECCENTRICITY":0.0001227,"INCLINATION":87.8984,"RA_OF_ASC_NODE":310.1124,"ARG_OF_PERICENTER":86.6442,"MEAN_ANOMALY":273.4828,"EPHEMERIS_TYPE":0,"CLASSIFICATION_TYPE":"U","NORAD_CAT_ID":55829,"ELEMENT_SET_NO":999,"REV_AT_EPOCH":14602,"BSTAR":0.00049544,"MEAN_MOTION_DOT":1.96e-6,"MEAN_MOTION_DDOT":0},{"OBJECT_NAME":"ONEWEB-0671","OBJECT_ID":"2023-029AL","EPOCH":"2026-03-07T03:58:39.110880","MEAN_MOTION":13.19726546,"ECCENTRICITY":0.0001603,"INCLINATION":87.923,"RA_OF_ASC_NODE":325.3045,"ARG_OF_PERICENTER":90.0555,"MEAN_ANOMALY":270.0762,"EPHEMERIS_TYPE":0,"CLASSIFICATION_TYPE":"U","NORAD_CAT_ID":55830,"ELEMENT_SET_NO":999,"REV_AT_EPOCH":14544,"BSTAR":3.1711e-5,"MEAN_MOTION_DOT":2.6e-7,"MEAN_MOTION_DDOT":0}]
